COSMOS 1500             
1 14372U 83099A   23258.51282636  .00012593  00000+0  43785-3 0  9998
2 14372  82.5088 240.5510 0013170  55.4554 304.7927 15.29513655183957
COSMOS 1536             
1 14699U 84013A   23258.52313580  .00003603  00000+0  22098-3 0  9997
2 14699  82.5530 277.7601 0019575 183.2603 176.8503 15.09689964135303
COSMOS 1544             
1 14819U 84027A   23258.45608201  .00021697  00000+0  42698-3 0  9996
2 14819  82.4713 239.7347 0006934 228.4175 131.6480 15.47088701164359
SL-14 R/B               
1 14820U 84027B   23258.39706331  .00000906  00000+0  10472-3 0  9999
2 14820  82.5459  13.8600 0020021  91.7450 268.6059 14.84329182113114
COSMOS 1626             
1 15494U 85009A   23258.58830208  .00012739  00000+0  34483-3 0  9995
2 15494  82.4710 115.9679 0001826  11.9348 348.1939 15.37550618116284
SL-12 R/B(2)            
1 15772U 85042D   23258.30239848  .00000122  00000+0  76945-4 0  9997
2 15772  71.1083 201.9342 0033085  96.4348  54.7956 14.21488163985565
SL-14 R/B               
1 15945U 85069B   23258.17515186  .00000795  00000+0  90865-4 0  9998
2 15945  82.5299 156.2703 0018359 315.8542  44.1208 14.84732286 38240
SL-16 R/B               
1 16182U 85097B   23258.47726681  .00000262  00000+0  15587-3 0  9996
2 16182  71.0006 248.0342 0008517 212.8597 298.6368 14.16354030958890
SL-14 R/B               
1 16496U 86006B   23258.47193670  .00000948  00000+0  10844-3 0  9993
2 16496  82.5266  31.2211 0020527  97.5572 328.8104 14.84826375 14647
COSMOS 1743             
1 16719U 86034A   23258.49065251  .00005665  00000+0  24398-3 0  9997
2 16719  82.5450 272.1329 0008606 283.5618  76.4659 15.22363266 41120
SL-14 R/B               
1 16792U 86046B   23258.40741816  .00000948  00000+0  11076-3 0  9998
2 16792  82.4830 215.2427 0023410 343.6994  16.3465 14.83919252991911
AJISAI (EGS)            
1 16908U 86061A   23258.59309003 -.00000094  00000+0  26717-4 0  9994
2 16908  50.0124 359.5390 0011452 140.5001 224.2741 12.44501511355173
COSMOS 1812             
1 17295U 87003A   23258.50755510  .00008661  00000+0  35418-3 0  9994
2 17295  82.5094  53.5382 0003990 118.3944 241.7695 15.24200435  4432
SL-14 R/B               
1 17567U 87024B   23258.43000953  .00000928  00000+0  10717-3 0  9998
2 17567  82.5284 223.2674 0019507  23.0429 337.1656 14.84443923953678
COSMOS 1833             
1 17589U 87027A   23258.57569211  .00000075  00000+0  66013-4 0  9991
2 17589  70.9209  70.4774 0020935 119.7548 240.5659 14.12959603882315
