[{"OBJECT_NAME":"COSMOS 1500","OBJECT_ID":"1983-099A","EPOCH":"2023-09-15T12:18:28.197504","MEAN_MOTION":15.29513655,"ECCENTRICITY":0.001317,"INCLINATION":82.5088,"RA_OF_ASC_NODE":240.551,"ARG_OF_PERICENTER":55.4554,"MEAN_ANOMALY":304.7927,"EPHEMERIS_TYPE":0,"CLASSIFICATION_TYPE":"U","NORAD_CAT_ID":14372,"ELEMENT_SET_NO":999,"REV_AT_EPOCH":18395,"BSTAR":0.00043785,"MEAN_MOTION_DOT":0.00012593,"MEAN_MOTION_DDOT":0},{"OBJECT_NAME":"COSMOS 1536","OBJECT_ID":"1984-013A","EPOCH":"2023-09-15T12:33:18.933120","MEAN_MOTION":15.09689964,"ECCENTRICITY":0.0019575,"INCLINATION":82.553,"RA_OF_ASC_NODE":277.7601,"ARG_OF_PERICENTER":183.2603,"MEAN_ANOMALY":176.8503,"EPHEMERIS_TYPE":0,"CLASSIFICATION_TYPE":"U","NORAD_CAT_ID":14699,"ELEMENT_SET_NO":999,"REV_AT_EPOCH":13530,"BSTAR":0.00022098,"MEAN_MOTION_DOT":3.603e-5,"MEAN_MOTION_DDOT":0},{"OBJECT_NAME":"COSMOS 1544","OBJECT_ID":"1984-027A","EPOCH":"2023-09-15T10:56:45.485664","MEAN_MOTION":15.47088701,"ECCENTRICITY":0.0006934,"INCLINATION":82.4713,"RA_OF_ASC_NODE":239.7347,"ARG_OF_PERICENTER":228.4175,"MEAN_ANOMALY":131.648,"EPHEMERIS_TYPE":0,"CLASSIFICATION_TYPE":"U","NORAD_CAT_ID":14819,"ELEMENT_SET_NO":999,"REV_AT_EPOCH":16435,"BSTAR":0.00042698,"MEAN_MOTION_DOT":0.00021697,"MEAN_MOTION_DDOT":0},{"OBJECT_NAME":"SL-14 R\/B","OBJECT_ID":"1984-027B","EPOCH":"2023-09-15T09:31:46.269984","MEAN_MOTION":14.84329182,"ECCENTRICITY":0.0020021,"INCLINATION":82.5459,"RA_OF_ASC_NODE":13.86,"ARG_OF_PERICENTER":91.745,"MEAN_ANOMALY":268.6059,"EPHEMERIS_TYPE":0,"CLASSIFICATION_TYPE":"U","NORAD_CAT_ID":14820,"ELEMENT_SET_NO":999,"REV_AT_EPOCH":11311,"BSTAR":0.00010472,"MEAN_MOTION_DOT":9.06e-6,"MEAN_MOTION_DDOT":0},{"OBJECT_NAME":"COSMOS 1626","OBJECT_ID":"1985-009A","EPOCH":"2023-09-15T14:07:09.299712","MEAN_MOTION":15.37550618,"ECCENTRICITY":0.0001826,"INCLINATION":82.471,"RA_OF_ASC_NODE":115.9679,"ARG_OF_PERICENTER":11.9348,"MEAN_ANOMALY":348.1939,"EPHEMERIS_TYPE":0,"CLASSIFICATION_TYPE":"U","NORAD_CAT_ID":15494,"ELEMENT_SET_NO":999,"REV_AT_EPOCH":11628,"BSTAR":0.00034483,"MEAN_MOTION_DOT":0.00012739,"MEAN_MOTION_DDOT":0},{"OBJECT_NAME":"SL-12 R\/B(2)","OBJECT_ID":"1985-042D","EPOCH":"2023-09-15T07:15:27.228672","MEAN_MOTION":14.21488163,"ECCENTRICITY":0.0033085,"INCLINATION":71.1083,"RA_OF_ASC_NODE":201.9342,"ARG_OF_PERICENTER":96.4348,"MEAN_ANOMALY":54.7956,"EPHEMERIS_TYPE":0,"CLASSIFICATION_TYPE":"U","NORAD_CAT_ID":15772,"ELEMENT_SET_NO":999,"REV_AT_EPOCH":98556,"BSTAR":7.6945e-5,"MEAN_MOTION_DOT":1.22e-6,"MEAN_MOTION_DDOT":0},{"OBJECT_NAME":"SL-14 R\/B","OBJECT_ID":"1985-069B","EPOCH":"2023-09-15T04:12:13.120704","MEAN_MOTION":14.84732286,"ECCENTRICITY":0.0018359,"INCLINATION":82.5299,"RA_OF_ASC_NODE":156.2703,"ARG_OF_PERICENTER":315.8542,"MEAN_ANOMALY":44.1208,"EPHEMERIS_TYPE":0,"CLASSIFICATION_TYPE":"U","NORAD_CAT_ID":15945,"ELEMENT_SET_NO":999,"REV_AT_EPOCH":3824,"BSTAR":9.0865e-5,"MEAN_MOTION_DOT":7.95e-6,"MEAN_MOTION_DDOT":0},{"OBJECT_NAME":"SL-16 R\/B","OBJECT_ID":"1985-097B","EPOCH":"2023-09-15T11:27:15.852384","MEAN_MOTION":14.1635403,"ECCENTRICITY":0.0008517,"INCLINATION":71.0006,"RA_OF_ASC_NODE":248.0342,"ARG_OF_PERICENTER":212.8597,"MEAN_ANOMALY":298.6368,"EPHEMERIS_TYPE":0,"CLASSIFICATION_TYPE":"U","NORAD_CAT_ID":16182,"ELEMENT_SET_NO":999,"REV_AT_EPOCH":95889,"BSTAR":0.00015587,"MEAN_MOTION_DOT":2.62e-6,"MEAN_MOTION_DDOT":0},{"OBJECT_NAME":"SL-14 R\/B","OBJECT_ID":"1986-006B","EPOCH":"2023-09-15T11:19:35.330880","MEAN_MOTION":14.84826375,"ECCENTRICITY":0.0020527,"INCLINATION":82.5266,"RA_OF_ASC_NODE":31.2211,"ARG_OF_PERICENTER":97.5572,"MEAN_ANOMALY":328.8104,"EPHEMERIS_TYPE":0,"CLASSIFICATION_TYPE":"U","NORAD_CAT_ID":16496,"ELEMENT_SET_NO":999,"REV_AT_EPOCH":1464,"BSTAR":0.00010844,"MEAN_MOTION_DOT":9.48e-6,"MEAN_MOTION_DDOT":0},{"OBJECT_NAME":"COSMOS 1743","OBJECT_ID":"1986-034A","EPOCH":"2023-09-15T11:46:32.376864","MEAN_MOTION":15.22363266,"ECCENTRICITY":0.0008606,"INCLINATION":82.545,"RA_OF_ASC_NODE":272.1329,"ARG_OF_PERICENTER":283.5618,"MEAN_ANOMALY":76.4659,"EPHEMERIS_TYPE":0,"CLASSIFICATION_TYPE":"U","NORAD_CAT_ID":16719,"ELEMENT_SET_NO":999,"REV_AT_EPOCH":4112,"BSTAR":0.00024398,"MEAN_MOTION_DOT":5.665e-5,"MEAN_MOTION_DDOT":0},{"OBJECT_NAME":"SL-14 R\/B","OBJECT_ID":"1986-046B","EPOCH":"2023-09-15T09:46:40.929024","MEAN_MOTION":14.83919252,"ECCENTRICITY":0.002341,"INCLINATION":82.483,"RA_OF_ASC_NODE":215.2427,"ARG_OF_PERICENTER":343.6994,"MEAN_ANOMALY":16.3465,"EPHEMERIS_TYPE":0,"CLASSIFICATION_TYPE":"U","NORAD_CAT_ID":16792,"ELEMENT_SET_NO":999,"REV_AT_EPOCH":99191,"BSTAR":0.00011076,"MEAN_MOTION_DOT":9.48e-6,"MEAN_MOTION_DDOT":0},{"OBJECT_NAME":"AJISAI (EGS)","OBJECT_ID":"1986-061A","EPOCH":"2023-09-15T14:14:02.978592","MEAN_MOTION":12.44501511,"ECCENTRICITY":0.0011452,"INCLINATION":50.0124,"RA_OF_ASC_NODE":359.539,"ARG_OF_PERICENTER":140.5001,"MEAN_ANOMALY":224.2741,"EPHEMERIS_TYPE":0,"CLASSIFICATION_TYPE":"U","NORAD_CAT_ID":16908,"ELEMENT_SET_NO":999,"REV_AT_EPOCH":35517,"BSTAR":2.6717e-5,"MEAN_MOTION_DOT":-9.4e-7,"MEAN_MOTION_DDOT":0},{"OBJECT_NAME":"COSMOS 1812","OBJECT_ID":"1987-003A","EPOCH":"2023-09-15T12:10:52.760640","MEAN_MOTION":15.24200435,"ECCENTRICITY":0.000399,"INCLINATION":82.5094,"RA_OF_ASC_NODE":53.5382,"ARG_OF_PERICENTER":118.3944,"MEAN_ANOMALY":241.7695,"EPHEMERIS_TYPE":0,"CLASSIFICATION_TYPE":"U","NORAD_CAT_ID":17295,"ELEMENT_SET_NO":999,"REV_AT_EPOCH":443,"BSTAR":0.00035418,"MEAN_MOTION_DOT":8.661e-5,"MEAN_MOTION_DDOT":0},{"OBJECT_NAME":"SL-14 R\/B","OBJECT_ID":"1987-024B","EPOCH":"2023-09-15T10:19:12.823392","MEAN_MOTION":14.84443923,"ECCENTRICITY":0.0019507,"INCLINATION":82.5284,"RA_OF_ASC_NODE":223.2674,"ARG_OF_PERICENTER":23.0429,"MEAN_ANOMALY":337.1656,"EPHEMERIS_TYPE":0,"CLASSIFICATION_TYPE":"U","NORAD_CAT_ID":17567,"ELEMENT_SET_NO":999,"REV_AT_EPOCH":95367,"BSTAR":0.00010717,"MEAN_MOTION_DOT":9.28e-6,"MEAN_MOTION_DDOT":0},{"OBJECT_NAME":"COSMOS 1833","OBJECT_ID":"1987-027A","EPOCH":"2023-09-15T13:48:59.798304","MEAN_MOTION":14.12959603,"ECCENTRICITY":0.0020935,"INCLINATION":70.9209,"RA_OF_ASC_NODE":70.4774,"ARG_OF_PERICENTER":119.7548,"MEAN_ANOMALY":240.5659,"EPHEMERIS_TYPE":0,"CLASSIFICATION_TYPE":"U","NORAD_CAT_ID":17589,"ELEMENT_SET_NO":999,"REV_AT_EPOCH":88231,"BSTAR":6.6013e-5,"MEAN_MOTION_DOT":7.5e-7,"MEAN_MOTION_DDOT":0}]
